$$SOE
2461295.500000000, A.D. 2026-Sep-12 00:00:00.0000, -1.219755431546103E+08, -4.653604567799045E+08, -3.175418809054551E+07,
2461302.500000000, A.D. 2026-Sep-19 00:00:00.0000, -1.126933118106843E+08, -4.678055148922325E+08, -3.037233538724568E+07,
2461309.500000000, A.D. 2026-Sep-26 00:00:00.0000, -1.033622541104060E+08, -4.700479818412585E+08, -2.897732716867778E+07,
2461316.500000000, A.D. 2026-Oct-03 00:00:00.0000, -9.398641377293839E+07, -4.720868942752383E+08, -2.756976796343827E+07,
2461323.500000000, A.D. 2026-Oct-10 00:00:00.0000, -8.456984976610360E+07, -4.739213597629939E+08, -2.615026670867667E+07,
2461330.500000000, A.D. 2026-Oct-17 00:00:00.0000, -7.511663564611216E+07, -4.755505569053072E+08, -2.471943663864291E+07,
2461337.500000000, A.D. 2026-Oct-24 00:00:00.0000, -6.563085890942352E+07, -4.769737355569187E+08, -2.327789518150115E+07,
2461344.500000000, A.D. 2026-Oct-31 00:00:00.0000, -5.611662025659146E+07, -4.781902172263989E+08, -2.182626387865373E+07,
2461351.500000000, A.D. 2026-Nov-07 00:00:00.0000, -4.657803242797685E+07, -4.791993955803742E+08, -2.036516835126525E+07,
2461358.500000000, A.D. 2026-Nov-14 00:00:00.0000, -3.701921840955114E+07, -4.800007361649963E+08, -1.889523825945216E+07,
2461365.500000000, A.D. 2026-Nov-21 00:00:00.0000, -2.744431081963437E+07, -4.805937746624088E+08, -1.741710703175202E+07,
2461372.500000000, A.D. 2026-Nov-28 00:00:00.0000, -1.785745347321238E+07, -4.809781166892314E+08, -1.593141151869988E+07,
2461379.500000000, A.D. 2026-Dec-05 00:00:00.0000, -8.262801502340074E+06, -4.811534397932295E+08, -1.443879195575008E+07,
2461386.500000000, A.D. 2026-Dec-12 00:00:00.0000, 1.335480133751325E+06, -4.811194945380811E+08, -1.293989199600774E+07,
2461393.500000000, A.D. 2026-Dec-19 00:00:00.0000, 1.093321786256632E+07, -4.808761046702632E+08, -1.143535863866618E+07,
2461400.500000000, A.D. 2026-Dec-26 00:00:00.0000, 2.052623029483878E+07, -4.804231672359862E+08, -9.925842110562056E+06,
2461407.500000000, A.D. 2027-Jan-02 00:00:00.0000, 3.011032888024918E+07, -4.797606528387983E+08, -8.411995741347045E+06,
2461414.500000000, A.D. 2027-Jan-09 00:00:00.0000, 3.968131853987996E+07, -4.788886060172257E+08, -6.894475841033489E+06,
2461421.500000000, A.D. 2027-Jan-16 00:00:00.0000, 4.923499831116468E+07, -4.778071457331492E+08, -5.373941582212031E+06,
2461428.500000000, A.D. 2027-Jan-23 00:00:00.0000, 5.876716205163869E+07, -4.765164660103945E+08, -3.851054894241422E+06,
2461435.500000000, A.D. 2027-Jan-30 00:00:00.0000, 6.827359938928504E+07, -4.750168367716360E+08, -2.326480390380889E+06,
2461442.500000000, A.D. 2027-Feb-06 00:00:00.0000, 7.775009734392762E+07, -4.733086045341128E+08, -8.008853388650715E+05,
2461449.500000000, A.D. 2027-Feb-13 00:00:00.0000, 8.719244215881017E+07, -4.713921917447304E+08, 7.250604641382098E+05,
2461456.500000000, A.D. 2027-Feb-20 00:00:00.0000, 9.659641897804056E+07, -4.692680955448264E+08, 2.250685071924478E+06,
2461463.500000000, A.D. 2027-Feb-27 00:00:00.0000, 1.059578107663649E+08, -4.669368891768337E+08, 3.775314624282688E+06,
2461470.500000000, A.D. 2027-Mar-06 00:00:00.0000, 1.152723994908917E+08, -4.643992241099475E+08, 5.298273324442565E+06,
2461477.500000000, A.D. 2027-Mar-13 00:00:00.0000, 1.245359679657970E+08, -4.616558308359473E+08, 6.818883470334888E+06,
2461484.500000000, A.D. 2027-Mar-20 00:00:00.0000, 1.337443012313144E+08, -4.587075191699073E+08, 8.336465575751603E+06,
2461491.500000000, A.D. 2027-Mar-27 00:00:00.0000, 1.428931876694098E+08, -4.555551786040469E+08, 9.850338518241882E+06,
2461498.500000000, A.D. 2027-Apr-03 00:00:00.0000, 1.519784200592125E+08, -4.521997787608864E+08, 1.135981969140688E+07,
2461505.500000000, A.D. 2027-Apr-10 00:00:00.0000, 1.609957966338125E+08, -4.486423699200618E+08, 1.286422515789825E+07,
2461512.500000000, A.D. 2027-Apr-17 00:00:00.0000, 1.699411221618167E+08, -4.448840836299896E+08, 1.436286979980654E+07,
2461519.500000000, A.D. 2027-Apr-24 00:00:00.0000, 1.788102091355236E+08, -4.409261334641237E+08, 1.585506745397127E+07,
2461526.500000000, A.D. 2027-May-01 00:00:00.0000, 1.875988793686480E+08, -4.367698158933859E+08, 1.734013100712794E+07,
2461533.500000000, A.D. 2027-May-08 00:00:00.0000, 1.963029663136849E+08, -4.324165105273634E+08, 1.881737248429632E+07,
2461540.500000000, A.D. 2027-May-15 00:00:00.0000, 2.049183166032533E+08, -4.278676787718970E+08, 2.028610334618917E+07,
2461547.500000000, A.D. 2027-May-22 00:00:00.0000, 2.134407892516518E+08, -4.231248634938933E+08, 2.174563492765641E+07,
2461554.500000000, A.D. 2027-May-29 00:00:00.0000, 2.218662558731506E+08, -4.181896911593813E+08, 2.319527858959872E+07,
2461561.500000000, A.D. 2027-Jun-05 00:00:00.0000, 2.301906028033414E+08, -4.130638733114437E+08, 2.463434575948772E+07,
2461568.500000000, A.D. 2027-Jun-12 00:00:00.0000, 2.384097331173943E+08, -4.077492069550613E+08, 2.606214808035897E+07,
2461575.500000000, A.D. 2027-Jun-19 00:00:00.0000, 2.465195682153081E+08, -4.022475747823478E+08, 2.747799762267320E+07,
2461582.500000000, A.D. 2027-Jun-26 00:00:00.0000, 2.545160492546612E+08, -3.965609454977543E+08, 2.888120711251596E+07,
2461589.500000000, A.D. 2027-Jul-03 00:00:00.0000, 2.623951385639572E+08, -3.906913742331983E+08, 3.027109016517429E+07,
2461596.500000000, A.D. 2027-Jul-10 00:00:00.0000, 2.701528210740660E+08, -3.846410030424766E+08, 3.164696152186725E+07,
2461603.500000000, A.D. 2027-Jul-17 00:00:00.0000, 2.777851058045209E+08, -3.784120615114506E+08, 3.300813728346506E+07,
2461610.500000000, A.D. 2027-Jul-24 00:00:00.0000, 2.852880275616953E+08, -3.720068675439686E+08, 3.435393512198259E+07,
2461617.500000000, A.D. 2027-Jul-31 00:00:00.0000, 2.926576492614476E+08, -3.654278280853505E+08, 3.568367445172928E+07,
2461624.500000000, A.D. 2027-Aug-07 00:00:00.0000, 2.998900646768181E+08, -3.586774386298036E+08, 3.699667667316176E+07,
2461631.500000000, A.D. 2027-Aug-14 00:00:00.0000, 3.069813993101407E+08, -3.517582817631882E+08, 3.829226568014733E+07,
2461638.500000000, A.D. 2027-Aug-21 00:00:00.0000, 3.139278100075635E+08, -3.446730281018877E+08, 3.956976829888579E+07,
2461645.500000000, A.D. 2027-Aug-28 00:00:00.0000, 3.207254867478641E+08, -3.374244384204925E+08, 4.082851444194844E+07,
2461652.500000000, A.D. 2027-Sep-04 00:00:00.0000, 3.273706554262722E+08, -3.300153644632810E+08, 4.206783729037148E+07,
2461659.500000000, A.D. 2027-Sep-11 00:00:00.0000, 3.338595802394699E+08, -3.224487490988400E+08, 4.328707357790823E+07,
2461666.500000000, A.D. 2027-Sep-18 00:00:00.0000, 3.401885658058244E+08, -3.147276264658074E+08, 4.448556391217227E+07,
2461673.500000000, A.D. 2027-Sep-25 00:00:00.0000, 3.463539592502192E+08, -3.068551221848128E+08, 4.566265310535122E+07,
2461680.500000000, A.D. 2027-Oct-02 00:00:00.0000, 3.523521523287498E+08, -2.988344536062152E+08, 4.681769050982755E+07,
2461687.500000000, A.D. 2027-Oct-09 00:00:00.0000, 3.581795836156105E+08, -2.906689300949950E+08, 4.795003035616173E+07,
2461694.500000000, A.D. 2027-Oct-16 00:00:00.0000, 3.638327408148050E+08, -2.823619534039915E+08, 4.905903208288807E+07,
2461701.500000000, A.D. 2027-Oct-23 00:00:00.0000, 3.693081634560970E+08, -2.739170181367494E+08, 5.014406063346934E+07,
2461708.500000000, A.D. 2027-Oct-30 00:00:00.0000, 3.746024463504265E+08, -2.653377116851954E+08, 5.120448673587094E+07,
2461715.500000000, A.D. 2027-Nov-06 00:00:00.0000, 3.797122426426060E+08, -2.566277125109126E+08, 5.223968736411253E+07,
2461722.500000000, A.D. 2027-Nov-13 00:00:00.0000, 3.846342644757668E+08, -2.477907888439726E+08, 5.324904639454935E+07,
2461729.500000000, A.D. 2027-Nov-20 00:00:00.0000, 3.893652841675413E+08, -2.388307999814776E+08, 5.423195501184258E+07,
2461736.500000000, A.D. 2027-Nov-27 00:00:00.0000, 3.939021375141840E+08, -2.297516972169158E+08, 5.518781195835736E+07,
2461743.500000000, A.D. 2027-Dec-04 00:00:00.0000, 3.982417271980651E+08, -2.205575234829161E+08, 5.611602388736065E+07,
2461750.500000000, A.D. 2027-Dec-11 00:00:00.0000, 4.023810257458985E+08, -2.112524126679806E+08, 5.701600579158024E+07,
2461757.500000000, A.D. 2027-Dec-18 00:00:00.0000, 4.063170783097377E+08, -2.018405889419888E+08, 5.788718145365751E+07,
2461764.500000000, A.D. 2027-Dec-25 00:00:00.0000, 4.100470054199598E+08, -1.923263660873623E+08, 5.872898390370803E+07,
2461771.500000000, A.D. 2028-Jan-01 00:00:00.0000, 4.135680057498959E+08, -1.827141468157701E+08, 5.954085588098615E+07,
$$EOE